{"type": "FeatureCollection", "features": [ {"type": "Feature", "properties": {"norad_id": 67162, "name": "ARIANE 6 R/B", "group": "last-30-days", "lat": 54.04405200901831, "lon": -155.70363971533382, "alt_km": 22911.48967064944, "timestamp": "2025-12-19T10:49:59.926165+00:00", "meta": {"OBJECT_NAME": "ARIANE 6 R/B", "OBJECT_ID": "2025-302C", "EPOCH": "2025-12-18T17:20:48.348384", "MEAN_MOTION": 1.73130153, "ECCENTRICITY": 4.788e-05, "INCLINATION": 54.2367, "RA_OF_ASC_NODE": 107.242, "ARG_OF_PERICENTER": 146.0337, "MEAN_ANOMALY": 213.929, "EPHEMERIS_TYPE": 0, "CLASSIFICATION_TYPE": "U", "NORAD_CAT_ID": 67162, "ELEMENT_SET_NO": 999, "REV_AT_EPOCH": 7, "BSTAR": 0, "MEAN_MOTION_DOT": -6e-08, "MEAN_MOTION_DDOT": 0}, "tle": {"line1": "1 67162U 25302C   25352.72278181 -.00000006  00000+0  00000+0 0  9992", "line2": "2 67162  54.2367 107.2420 0000478 146.0337 213.9290  1.73130153    77"}}, "geometry": {"type": "Point", "coordinates": [-155.70363971533382, 54.04405200901831]}}, {"type": "Feature", "properties": {"norad_id": 67219, "name": "DISKSAT A", "group": "last-30-days", "lat": -2.3594305304031136, "lon": -47.39875302519847, "alt_km": 548.2936620594983, "timestamp": "2025-12-19T10:49:59.926175+00:00", "meta": {"OBJECT_NAME": "DISKSAT A", "OBJECT_ID": "2025-305A", "EPOCH": "2025-12-18T06:11:23.597664", "MEAN_MOTION": 15.05868419, "ECCENTRICITY": 0.00043552, "INCLINATION": 45.0103, "RA_OF_ASC_NODE": 321.2665, "ARG_OF_PERICENTER": 276.2808, "MEAN_ANOMALY": 83.7571, "EPHEMERIS_TYPE": 0, "CLASSIFICATION_TYPE": "U", "NORAD_CAT_ID": 67219, "ELEMENT_SET_NO": 999, "REV_AT_EPOCH": 1, "BSTAR": 6.4032814e-05, "MEAN_MOTION_DOT": 7.05e-06, "MEAN_MOTION_DDOT": 0}, "tle": {"line1": "1 67219U 25305A   25352.25791201  .00000705  00000+0  64033-4 0  9995", "line2": "2 67219  45.0103 321.2665 0004355 276.2808  83.7571 15.05868419    14"}}, "geometry": {"type": "Point", "coordinates": [-47.39875302519847, -2.3594305304031136]}}, {"type": "Feature", "properties": {"norad_id": 67220, "name": "DISKSAT B", "group": "last-30-days", "lat": -3.7422125925274887, "lon": -48.780967428327564, "alt_km": 549.3500984815291, "timestamp": "2025-12-19T10:49:59.926188+00:00", "meta": {"OBJECT_NAME": "DISKSAT B", "OBJECT_ID": "2025-305B", "EPOCH": "2025-12-18T06:11:23.538912", "MEAN_MOTION": 15.05411903, "ECCENTRICITY": 0.0003917, "INCLINATION": 45.0065, "RA_OF_ASC_NODE": 321.27, "ARG_OF_PERICENTER": 288.0087, "MEAN_ANOMALY": 72.0361, "EPHEMERIS_TYPE": 0, "CLASSIFICATION_TYPE": "U", "NORAD_CAT_ID": 67220, "ELEMENT_SET_NO": 999, "REV_AT_EPOCH": 1, "BSTAR": 0.00011832, "MEAN_MOTION_DOT": 1.486e-05, "MEAN_MOTION_DDOT": 0}, "tle": {"line1": "1 67220U 25305B   25352.25791133  .00001486  00000+0  11832-3 0  9996", "line2": "2 67220  45.0065 321.2700 0003917 288.0087  72.0361 15.05411903    16"}}, "geometry": {"type": "Point", "coordinates": [-48.780967428327564, -3.7422125925274887]}}, {"type": "Feature", "properties": {"norad_id": 67221, "name": "DISKSAT C", "group": "last-30-days", "lat": 29.519594552563596, "lon": -10.752216104167372, "alt_km": 509.9891497386943, "timestamp": "2025-12-19T10:49:59.926198+00:00", "meta": {"OBJECT_NAME": "DISKSAT C", "OBJECT_ID": "2025-305C", "EPOCH": "2025-12-18T06:11:31.580160", "MEAN_MOTION": 15.16973586, "ECCENTRICITY": 0.00625938, "INCLINATION": 45.0151, "RA_OF_ASC_NODE": 321.1654, "ARG_OF_PERICENTER": 307.7869, "MEAN_ANOMALY": 51.7353, "EPHEMERIS_TYPE": 0, "CLASSIFICATION_TYPE": "U", "NORAD_CAT_ID": 67221, "ELEMENT_SET_NO": 999, "REV_AT_EPOCH": 1, "BSTAR": 0.00014323237, "MEAN_MOTION_DOT": 2.734e-05, "MEAN_MOTION_DDOT": 0}, "tle": {"line1": "1 67221U 25305C   25352.25800440  .00002734  00000+0  14323-3 0  9994", "line2": "2 67221  45.0151 321.1654 0062593 307.7869  51.7353 15.16973586    19"}}, "geometry": {"type": "Point", "coordinates": [-10.752216104167372, 29.519594552563596]}}, {"type": "Feature", "properties": {"norad_id": 67222, "name": "DISKSAT D", "group": "last-30-days", "lat": -0.8020680674056436, "lon": -46.08184041120675, "alt_km": 549.5735345075918, "timestamp": "2025-12-19T10:49:59.926210+00:00", "meta": {"OBJECT_NAME": "DISKSAT D", "OBJECT_ID": "2025-305D", "EPOCH": "2025-12-18T07:46:51.908160", "MEAN_MOTION": 15.06357331, "ECCENTRICITY": 0.00088258, "INCLINATION": 45.0527, "RA_OF_ASC_NODE": 320.6724, "ARG_OF_PERICENTER": 241.9782, "MEAN_ANOMALY": 118.0201, "EPHEMERIS_TYPE": 0, "CLASSIFICATION_TYPE": "U", "NORAD_CAT_ID": 67222, "ELEMENT_SET_NO": 999, "REV_AT_EPOCH": 1, "BSTAR": 0.00029211464, "MEAN_MOTION_DOT": 4.13e-05, "MEAN_MOTION_DDOT": 0}, "tle": {"line1": "1 67222U 25305D   25352.32421190  .00004130  00000+0  29211-3 0  9998", "line2": "2 67222  45.0527 320.6724 0008825 241.9782 118.0201 15.06357331    12"}}, "geometry": {"type": "Point", "coordinates": [-46.08184041120675, -0.8020680674056436]}}, {"type": "Feature", "properties": {"norad_id": 67223, "name": "ELECTRON KICK STAGE R/B", "group": "last-30-days", "lat": -0.856205853077081, "lon": 135.4136213484523, "alt_km": 324.3363004515468, "timestamp": "2025-12-19T10:49:59.926220+00:00", "meta": {"OBJECT_NAME": "ELECTRON KICK STAGE R/B", "OBJECT_ID": "2025-305E", "EPOCH": "2025-12-18T06:11:27.945312", "MEAN_MOTION": 15.48092024, "ECCENTRICITY": 0.01803623, "INCLINATION": 44.9944, "RA_OF_ASC_NODE": 321.2861, "ARG_OF_PERICENTER": 136.421, "MEAN_ANOMALY": 225.1089, "EPHEMERIS_TYPE": 0, "CLASSIFICATION_TYPE": "U", "NORAD_CAT_ID": 67223, "ELEMENT_SET_NO": 999, "REV_AT_EPOCH": 1, "BSTAR": 0.00018043632, "MEAN_MOTION_DOT": 0.00018378, "MEAN_MOTION_DDOT": 0}, "tle": {"line1": "1 67223U 25305E   25352.25796233  .00018378  00000+0  18044-3 0  9995", "line2": "2 67223  44.9944 321.2861 0180362 136.4210 225.1089 15.48092024    19"}}, "geometry": {"type": "Point", "coordinates": [135.4136213484523, -0.856205853077081]}}, {"type": "Feature", "properties": {"norad_id": 67224, "name": "ELECTRON R/B", "group": "last-30-days", "lat": -39.47302956822807, "lon": -170.19787731798922, "alt_km": 240.14701834012067, "timestamp": "2025-12-19T10:49:59.926230+00:00", "meta": {"OBJECT_NAME": "ELECTRON R/B", "OBJECT_ID": "2025-305F", "EPOCH": "2025-12-18T18:27:13.126752", "MEAN_MOTION": 15.64663678, "ECCENTRICITY": 0.0262888, "INCLINATION": 45.0188, "RA_OF_ASC_NODE": 318.3021, "ARG_OF_PERICENTER": 280.1207, "MEAN_ANOMALY": 77.0133, "EPHEMERIS_TYPE": 0, "CLASSIFICATION_TYPE": "U", "NORAD_CAT_ID": 67224, "ELEMENT_SET_NO": 999, "REV_AT_EPOCH": 9, "BSTAR": 0.00022935, "MEAN_MOTION_DOT": 0.00172783, "MEAN_MOTION_DDOT": 8.6369e-06}, "tle": {"line1": "1 67224U 25305F   25352.76890193  .00172783  86369-5  22935-3 0  9995", "line2": "2 67224  45.0188 318.3021 0262888 280.1207  77.0133 15.64663678    93"}}, "geometry": {"type": "Point", "coordinates": [-170.19787731798922, -39.47302956822807]}}]}